OBJECT_NAME,OBJECT_ID,EPOCH,MEAN_MOTION,ECCENTRICITY,INCLINATION,RA_OF_ASC_NODE,ARG_OF_PERICENTER,MEAN_ANOMALY,EPHEMERIS_TYPE,CLASSIFICATION_TYPE,NORAD_CAT_ID,ELEMENT_SET_NO,REV_AT_EPOCH,BSTAR,MEAN_MOTION_DOT,MEAN_MOTION_DDOT
STARLINK-37614,2026-101S,2026-06-16T13:14:49.547904,15.33449983,.00016403,97.2838,22.3831,77.8987,282.2439,0,U,69041,999,647,.66497447E-3,.21458E-3,0
STARLINK-37644,2026-101T,2026-06-16T14:29:12.822432,15.33448178,.00018149,97.2841,22.4643,89.5203,270.6248,0,U,69042,999,648,.23233148E-3,.7434E-4,0
STARLINK-37571,2026-101U,2026-06-16T13:03:04.717440,15.33450899,.00024579,97.2840,22.3932,105.0886,255.0629,0,U,69043,999,647,.34577573E-3,.11107E-3,0
STARLINK-37664,2026-101V,2026-06-16T14:00:01.000224,15.33431958,.00014586,97.2844,22.4502,89.8477,173.4236,0,U,69044,999,600,.89328448E-3,.28862E-3,0
STARLINK-37667,2026-101W,2026-06-16T14:13:33.319200,15.33445301,.00021507,97.2841,22.4807,95.2907,264.8581,0,U,69045,999,648,.31430001E-3,.10086E-3,0
STARLINK-37666,2026-101X,2026-06-16T13:50:03.729120,15.33444041,.00018031,97.2838,22.5029,93.8341,266.3108,0,U,69046,999,648,.3035507E-3,.9737E-4,0
STARLINK-37576,2026-101Y,2026-06-16T13:43:00.287040,15.30516066,.00175774,97.2831,22.5111,44.3416,315.9229,0,U,69047,999,648,-.60544929E-1,-.1634083E-1,0
STARLINK-37663,2026-101Z,2026-06-16T14:01:48.444672,15.33445169,.00017792,97.2843,22.4901,96.8513,263.2932,0,U,69048,999,648,.20045075E-3,.6402E-4,0
TIANZHOU-10,2026-102A,2026-06-16T11:09:48.426912,15.60781847,.0007507,41.4697,326.3961,71.1015,289.0637,0,U,69049,999,582,.22289539E-3,.1883E-3,0
QIANFAN-127,2026-104A,2026-06-16T04:54:21.284064,14.04893496,.0005548,88.9857,341.7221,78.5675,281.6130,0,U,69073,999,494,.74378E-4,.133E-5,0
QIANFAN-128,2026-104B,2026-06-16T06:42:33.811200,14.01462413,.00055209,88.9866,341.7322,85.4241,274.7569,0,U,69074,999,494,.56975263E-4,.1E-5,0
QIANFAN-129,2026-104C,2026-06-15T23:56:33.612864,14.07310742,.00055633,88.9864,341.7266,84.5125,275.6692,0,U,69075,999,492,.53962093E-4,.105E-5,0
QIANFAN-130,2026-104D,2026-06-16T06:18:07.585056,14.02770071,.0006039,88.9862,341.7301,86.5005,273.6866,0,U,69076,999,494,.47772E-4,.88E-6,0
QIANFAN-131,2026-104E,2026-06-16T05:14:08.549664,14.05966600,.0005246,88.9861,341.7218,92.3988,267.7795,0,U,69077,999,494,.1319E-4,.36E-6,0
QIANFAN-132,2026-104F,2026-06-15T20:34:21.641088,14.00536338,.00046342,88.9855,341.7877,101.4206,258.7494,0,U,69078,999,488,.35815198E-4,.67E-6,0
QIANFAN-133,2026-104G,2026-06-16T09:29:49.781184,14.04634411,.00058093,88.9866,341.7115,79.9585,280.2251,0,U,69079,999,496,.26184271E-4,.56E-6,0
QIANFAN-134,2026-104H,2026-06-16T01:00:30.616128,14.00859415,.00073145,88.9873,341.7522,69.0072,291.1889,0,U,69080,999,491,.29643519E-4,.58E-6,0
QIANFAN-135,2026-104J,2026-06-16T05:50:44.001312,14.03071489,.0004835,88.9862,341.7272,92.6126,267.5608,0,U,69081,999,494,.58493E-5,.23E-6,0
QIANFAN-136,2026-104K,2026-06-16T05:44:01.334112,14.01764268,.0007027,88.9859,341.7246,91.7833,268.4152,0,U,69082,999,494,-.92639E-5,0,0
QIANFAN-137,2026-104L,2026-06-16T10:41:06.854208,14.17710700,.00059728,88.9863,341.6624,101.8244,258.3615,0,U,69083,999,499,.25462081E-4,.66E-6,0
QIANFAN-138,2026-104M,2026-06-16T05:21:39.491136,14.03066794,.0005008,88.9858,341.7230,86.5879,273.5874,0,U,69084,999,494,-.17773E-4,-.14E-6,0
QIANFAN-139,2026-104N,2026-06-16T08:32:26.570112,14.04393662,.00046821,88.9865,341.7059,81.1118,279.0593,0,U,69085,999,496,.4766187E-4,.9E-6,0
QIANFAN-140,2026-104P,2026-06-16T08:24:50.792832,14.04354952,.00049307,88.9866,341.7048,83.9462,276.2281,0,U,69086,999,496,.71221414E-4,.127E-5,0
QIANFAN-141,2026-104Q,2026-06-16T08:11:19.042368,14.04523349,.00043429,88.9903,341.7065,79.9589,280.2083,0,U,69087,999,496,.63927105E-4,.116E-5,0
QIANFAN-142,2026-104R,2026-06-16T07:54:27.286272,14.06298153,.00057373,88.9864,341.7018,82.1431,278.0403,0,U,69088,999,496,.37074349E-4,.75E-6,0
QIANFAN-143,2026-104S,2026-06-16T05:46:40.674720,14.07059348,.0005668,88.9865,341.7080,74.7575,285.4234,0,U,69089,999,495,.17901E-5,.17E-6,0
QIANFAN-144,2026-104T,2026-06-16T09:25:13.339200,14.06573553,.00055731,88.9863,341.6919,74.9115,285.2683,0,U,69090,999,497,.20718034E-4,.48E-6,0
ZHUQUE-2E R/B,2026-105A,2026-06-16T14:32:27.835872,15.17209584,.04472383,88.9692,194.3471,300.6010,55.1833,0,U,69095,999,506,.25659834E-3,.105161E-2,-.585196E-6
2026-106A,2026-106A,2026-06-16T14:48:18.660960,15.11190474,.0014941,97.5099,249.7114,162.8588,197.3150,0,U,69097,999,489,.30783214E-3,.5117E-4,0
2026-106B,2026-106B,2026-06-16T13:37:36.610176,15.09675625,.00153527,97.5082,249.6170,159.2182,200.9674,0,U,69098,999,488,.24855853E-3,.395E-4,0
