STARLINK-37614          
1 69041U 26101S   26167.55196236  .00021458  00000+0  66497-3 0  9993
2 69041  97.2838  22.3831 0001640  77.8987 282.2439 15.33449983  6471
STARLINK-37644          
1 69042U 26101T   26167.60362063  .00007434  00000+0  23233-3 0  9992
2 69042  97.2841  22.4643 0001814  89.5203 270.6248 15.33448178  6487
STARLINK-37571          
1 69043U 26101U   26167.54380460  .00011107  00000+0  34578-3 0  9993
2 69043  97.2840  22.3932 0002457 105.0886 255.0629 15.33450899  6474
STARLINK-37664          
1 69044U 26101V   26167.58334491  .00028862  00000+0  89328-3 0  9990
2 69044  97.2844  22.4502 0001458  89.8477 173.4236 15.33431958  6009
STARLINK-37667          
1 69045U 26101W   26167.59274675  .00010086  00000+0  31430-3 0  9999
2 69045  97.2841  22.4807 0002150  95.2907 264.8581 15.33445301  6481
STARLINK-37666          
1 69046U 26101X   26167.57643205  .00009737  00000+0  30355-3 0  9993
2 69046  97.2838  22.5029 0001803  93.8341 266.3108 15.33444041  6487
STARLINK-37576          
1 69047U 26101Y   26167.57153110 -.01634083  00000+0 -60545-1 0  9998
2 69047  97.2831  22.5111 0017577  44.3416 315.9229 15.30516066  6481
STARLINK-37663          
1 69048U 26101Z   26167.58458848  .00006402  00000+0  20045-3 0  9994
2 69048  97.2843  22.4901 0001779  96.8513 263.2932 15.33445169  6482
TIANZHOU-10             
1 69049U 26102A   26167.46514383  .00018830  00000+0  22290-3 0  9992
2 69049  41.4697 326.3961 0007507  71.1015 289.0637 15.60781847  5822
QIANFAN-127             
1 69073U 26104A   26167.20441301  .00000133  00000+0  74378-4 0  9994
2 69073  88.9857 341.7221 0005548  78.5675 281.6130 14.04893496  4948
QIANFAN-128             
1 69074U 26104B   26167.27955800  .00000100  00000+0  56975-4 0  9993
2 69074  88.9866 341.7322 0005520  85.4241 274.7569 14.01462413  4944
QIANFAN-129             
1 69075U 26104C   26166.99761126  .00000105  00000+0  53962-4 0  9996
2 69075  88.9864 341.7266 0005563  84.5125 275.6692 14.07310742  4926
QIANFAN-130             
1 69076U 26104D   26167.26258779  .00000088  00000+0  47772-4 0  9995
2 69076  88.9862 341.7301 0006039  86.5005 273.6866 14.02770071  4946
QIANFAN-131             
1 69077U 26104E   26167.21815451  .00000036  00000+0  13190-4 0  9997
2 69077  88.9861 341.7218 0005246  92.3988 267.7795 14.05966600  4940
QIANFAN-132             
1 69078U 26104F   26166.85719492  .00000067  00000+0  35815-4 0  9997
2 69078  88.9855 341.7877 0004634 101.4206 258.7494 14.00536338  4885
QIANFAN-133             
1 69079U 26104G   26167.39571506  .00000056  00000+0  26184-4 0  9997
2 69079  88.9866 341.7115 0005809  79.9585 280.2251 14.04634411  4962
QIANFAN-134             
1 69080U 26104H   26167.04202102  .00000058  00000+0  29644-4 0  9990
2 69080  88.9873 341.7522 0007314  69.0072 291.1889 14.00859415  4910
QIANFAN-135             
1 69081U 26104J   26167.24356483  .00000023  00000+0  58493-5 0  9992
2 69081  88.9862 341.7272 0004835  92.6126 267.5608 14.03071489  4947
QIANFAN-136             
1 69082U 26104K   26167.23890433  .00000000  00000+0 -92639-5 0  9996
2 69082  88.9859 341.7246 0007027  91.7833 268.4152 14.01764268  4942
QIANFAN-137             
1 69083U 26104L   26167.44521822  .00000066  00000+0  25462-4 0  9993
2 69083  88.9863 341.6624 0005972 101.8244 258.3615 14.17710700  4999
QIANFAN-138             
1 69084U 26104M   26167.22337374 -.00000014  00000+0 -17773-4 0  9998
2 69084  88.9858 341.7230 0005008  86.5879 273.5874 14.03066794  4944
QIANFAN-139             
1 69085U 26104N   26167.35586308  .00000090  00000+0  47662-4 0  9998
2 69085  88.9865 341.7059 0004682  81.1118 279.0593 14.04393662  4965
QIANFAN-140             
1 69086U 26104P   26167.35058788  .00000127  00000+0  71221-4 0  9994
2 69086  88.9866 341.7048 0004930  83.9462 276.2281 14.04354952  4965
QIANFAN-141             
1 69087U 26104Q   26167.34119262  .00000116  00000+0  63927-4 0  9991
2 69087  88.9903 341.7065 0004342  79.9589 280.2083 14.04523349  4962
QIANFAN-142             
1 69088U 26104R   26167.32948248  .00000075  00000+0  37074-4 0  9992
2 69088  88.9864 341.7018 0005737  82.1431 278.0403 14.06298153  4963
QIANFAN-143             
1 69089U 26104S   26167.24074855  .00000017  00000+0  17901-5 0  9992
2 69089  88.9865 341.7080 0005668  74.7575 285.4234 14.07059348  4958
QIANFAN-144             
1 69090U 26104T   26167.39251550  .00000048  00000+0  20718-4 0  9992
2 69090  88.9863 341.6919 0005573  74.9115 285.2683 14.06573553  4971
ZHUQUE-2E R/B           
1 69095U 26105A   26167.60587773  .00105161 -58520-6  25660-3 0  9991
2 69095  88.9692 194.3471 0447238 300.6010  55.1833 15.17209584  5068
2026-106A               
1 69097U 26106A   26167.61688265  .00005117  00000+0  30783-3 0  9997
2 69097  97.5099 249.7114 0014941 162.8588 197.3150 15.11190474  4897
2026-106B               
1 69098U 26106B   26167.56778484  .00003950  00000+0  24856-3 0  9992
2 69098  97.5082 249.6170 0015352 159.2182 200.9674 15.09675625  4882
